H1 CPF  1  DLR 2021 06 29 10  6802 technosat            
H2  1704205 6203    42829 2021 06 29 00 00 00 2021 07 06 00 00 00    60 1 1  0 0 0
H9
10 0 59397  14400.000000  0        590056.267      -1065970.576       6846331.590
10 0 59397  14460.000000  0        432587.498      -1491053.903       6778524.461
10 0 59397  14520.000000  0        269605.644      -1908435.514       6681872.168
10 0 59397  14580.000000  0        101874.455      -2316306.524       6556784.163
10 0 59397  14640.000000  0        -69806.621      -2712904.892       6403790.821
10 0 59397  14700.000000  0       -244606.197      -3096523.142       6223541.128
10 0 59397  14760.000000  0       -421664.931      -3465515.766       6016800.015
10 0 59397  14820.000000  0       -600099.698      -3818306.402       5784445.206
10 0 59397  14880.000000  0       -779007.909      -4153394.682       5527463.663
10 0 59397  14940.000000  0       -957472.034      -4469362.856       5246947.628
10 0 59397  15000.000000  0      -1134564.311      -4764882.100       4944090.131
10 0 59397  15060.000000  0      -1309351.565      -5038718.441       4620179.987
10 0 59397  15120.000000  0      -1480900.075      -5289738.233       4276596.285
10 0 59397  15180.000000  0      -1648280.506      -5516913.146       3914802.462
10 0 59397  15240.000000  0      -1810572.879      -5719324.624       3536339.970
10 0 59397  15300.000000  0      -1966871.545      -5896167.799       3142821.590
10 0 59397  15360.000000  0      -2116290.137      -6046754.869       2735924.445
10 0 59397  15420.000000  0      -2257966.478      -6170517.948       2317382.673
10 0 59397  15480.000000  0      -2391067.372      -6267011.303       1888979.796
10 0 59397  15540.000000  0      -2514793.256      -6335913.011       1452540.877
10 0 59397  15600.000000  0      -2628382.730      -6377026.013       1009924.474
10 0 59397  15660.000000  0      -2731116.904      -6390278.532        563014.434
10 0 59397  15720.000000  0      -2822323.535      -6375723.888        113711.592
10 0 59397  15780.000000  0      -2901380.940      -6333539.698       -336074.612
10 0 59397  15840.000000  0      -2967721.667      -6264026.462       -784434.528
10 0 59397  15900.000000  0      -3020835.888      -6167605.539      -1229466.671
10 0 59397  15960.000000  0      -3060274.501      -6044816.544      -1669286.009
10 0 59397  16020.000000  0      -3085651.939      -5896314.187      -2102032.138
10 0 59397  16080.000000  0      -3096648.637      -5722864.580      -2525877.308
10 0 59397  16140.000000  0      -3093013.159      -5525341.003      -2939034.265
10 0 59397  16200.000000  0      -3074563.963      -5304719.187      -3339763.809
10 0 59397  16260.000000  0      -3041190.797      -5062072.154      -3726382.073
10 0 59397  16320.000000  0      -2992855.747      -4798564.672      -4097267.459
10 0 59397  16380.000000  0      -2929593.935      -4515447.373      -4450867.249
10 0 59397  16440.000000  0      -2851513.849      -4214050.544      -4785703.867
10 0 59397  16500.000000  0      -2758797.350      -3895777.632      -5100380.761
10 0 59397  16560.000000  0      -2651699.317      -3562098.507      -5393587.897
10 0 59397  16620.000000  0      -2530546.967      -3214542.511      -5664106.858
10 0 59397  16680.000000  0      -2395738.817      -2854691.327      -5910815.523
10 0 59397  16740.000000  0      -2247743.313      -2484171.716      -6132692.336
10 0 59397  16800.000000  0      -2087097.095      -2104648.129      -6328820.145
10 0 59397  16860.000000  0      -1914402.981      -1717815.239      -6498389.541
10 0 59397  16920.000000  0      -1730327.660      -1325390.475      -6640701.779
10 0 59397  16980.000000  0      -1535599.113       -929106.523      -6755171.268
10 0 59397  17040.000000  0      -1331003.772       -530703.865      -6841327.600
10 0 59397  17100.000000  0      -1117383.413       -131923.377      -6898817.204
10 0 59397  17160.000000  0       -895631.758        265500.992      -6927404.589
10 0 59397  17220.000000  0       -666690.820        659849.473      -6926973.189
10 0 59397  17280.000000  0       -431547.025       1049423.693      -6897525.752
10 0 59397  17340.000000  0       -191227.142       1432553.687      -6839184.240
10 0 59397  17400.000000  0         53205.960       1807604.738      -6752189.457
10 0 59397  17460.000000  0        300657.844       2172984.197      -6636900.291
10 0 59397  17520.000000  0        550007.292       2527148.086      -6493792.434
10 0 59397  17580.000000  0        800111.243       2868607.484      -6323456.662
10 0 59397  17640.000000  0       1049809.837       3195934.725      -6126596.635
10 0 59397  17700.000000  0       1297931.597       3507769.276      -5904026.303
10 0 59397  17760.000000  0       1543298.767       3802823.368      -5656666.954
10 0 59397  17820.000000  0       1784732.770       4079887.377      -5385543.817
10 0 59397  17880.000000  0       2021059.751       4337834.898      -5091782.234
10 0 59397  17940.000000  0       2251116.195       4575627.523      -4776603.414
10 0 59397  18000.000000  0       2473754.581       4792319.256      -4441319.693
10 0 59397  18060.000000  0       2687849.013       4987060.500      -4087329.403
10 0 59397  18120.000000  0       2892300.860       5159101.644      -3716111.405
10 0 59397  18180.000000  0       3086044.375       5307796.270      -3329219.229
10 0 59397  18240.000000  0       3268052.253       5432603.930      -2928274.797
10 0 59397  18300.000000  0       3437341.089       5533092.384      -2514961.762
10 0 59397  18360.000000  0       3592976.648       5608939.348      -2091018.581
10 0 59397  18420.000000  0       3734078.995       5659933.794      -1658231.275
10 0 59397  18480.000000  0       3859827.414       5685976.707      -1218425.876
10 0 59397  18540.000000  0       3969465.055       5687081.300       -773460.651
10 0 59397  18600.000000  0       4062303.342       5663372.685       -325218.145
10 0 59397  18660.000000  0       4137726.083       5615087.018        124402.943
10 0 59397  18720.000000  0       4195193.239       5542570.063        573496.015
10 0 59397  18780.000000  0       4234244.333       5446275.205       1020154.866
10 0 59397  18840.000000  0       4254501.450       5326760.930       1462481.969
10 0 59397  18900.000000  0       4255671.862       5184687.937       1898596.682
10 0 59397  18960.000000  0       4237550.393       5020815.810       2326643.573
10 0 59397  19020.000000  0       4200021.241       4835998.990       2744800.790
10 0 59397  19080.000000  0       4143059.181       4631182.184       3151288.038
10 0 59397  19140.000000  0       4066730.412       4407395.560       3544374.269
10 0 59397  19200.000000  0       3971193.024       4165749.514       3922385.266
10 0 59397  19260.000000  0       3856697.039       3907428.994       4283710.881
10 0 59397  19320.000000  0       3723584.011       3633687.659       4626812.054
10 0 59397  19380.000000  0       3572286.016       3345841.733       4950227.664
10 0 59397  19440.000000  0       3403324.112       3045263.383       5252580.867
10 0 59397  19500.000000  0       3217306.442       2733373.907       5532584.793
10 0 59397  19560.000000  0       3014926.030       2411636.943       5789047.903
10 0 59397  19620.000000  0       2796958.173       2081551.465       6020879.068
10 0 59397  19680.000000  0       2564257.373       1744644.633       6227092.199
10 0 59397  19740.000000  0       2317753.848       1402464.555       6406810.336
10 0 59397  19800.000000  0       2058449.712       1056573.070       6559269.248
10 0 59397  19860.000000  0       1787414.795        708538.557       6683820.567
10 0 59397  19920.000000  0       1505782.118        359928.816       6779934.456
10 0 59397  19980.000000  0       1214743.109         12303.994       6847201.841
10 0 59397  20040.000000  0        915542.482       -332790.509       6885336.191
10 0 59397  20100.000000  0        609472.842       -673831.059       6894174.668
10 0 59397  20160.000000  0        297869.037      -1009322.551       6873678.780
10 0 59397  20220.000000  0        -17897.749      -1337805.032       6823934.570
10 0 59397  20280.000000  0       -336426.080      -1657860.151       6745152.258
10 0 59397  20340.000000  0       -656290.574      -1968117.370       6637665.370
10 0 59397  20400.000000  0       -976048.334      -2267259.913       6501929.313
10 0 59397  20460.000000  0      -1294245.425      -2554030.391       6338519.472
10 0 59397  20520.000000  0      -1609423.451      -2827236.159       6148128.939
10 0 59397  20580.000000  0      -1920126.306      -3085754.404       5931565.765
10 0 59397  20640.000000  0      -2224906.986      -3328536.935       5689749.701
10 0 59397  20700.000000  0      -2522334.485      -3554614.625       5423708.451
10 0 59397  20760.000000  0      -2811000.732      -3763101.468       5134573.402
10 0 59397  20820.000000  0      -3089527.455      -3953198.209       4823574.814
10 0 59397  20880.000000  0      -3356572.897      -4124195.526       4492036.568
10 0 59397  20940.000000  0      -3610838.412      -4275476.796       4141370.534
10 0 59397  21000.000000  0      -3851074.919      -4406520.434       3773070.479
10 0 59397  21060.000000  0      -4076089.111      -4516901.720       3388705.649
10 0 59397  21120.000000  0      -4284749.498      -4606294.215       2989914.030
10 0 59397  21180.000000  0      -4475992.226      -4674470.708       2578395.220
10 0 59397  21240.000000  0      -4648826.582      -4721303.635       2155902.974
10 0 59397  21300.000000  0      -4802340.166      -4746764.979       1724237.482
10 0 59397  21360.000000  0      -4935703.677      -4750925.661       1285237.454
10 0 59397  21420.000000  0      -5048175.328      -4733954.474        840772.030
10 0 59397  21480.000000  0      -5139104.847      -4696116.512        392732.523
10 0 59397  21540.000000  0      -5207937.025      -4637771.108        -56975.910
99
